{
 "generated_at": "2026-06-26T08:30:21Z",
 "sources": [
  {
   "name": "CelesTrak",
   "url": "https://celestrak.org/NORAD/elements/",
   "license": "frei verfügbar; Attribution. Ursprünglich USSPACECOM/Space-Track."
  },
  {
   "name": "GCAT (J. McDowell, planet4589.org)",
   "url": "https://planet4589.org/space/gcat/",
   "license": "CC-BY 4.0"
  }
 ],
 "satellites": [
  {
   "norad": 40275,
   "name": "YAOGAN-22",
   "intl": "2014-063A",
   "group": "resource",
   "gcat": {
    "class": null,
    "category": null,
    "owner": null,
    "state": null
   },
   "omm": {
    "OBJECT_NAME": "YAOGAN-22",
    "OBJECT_ID": "2014-063A",
    "EPOCH": "2026-06-26T03:49:59.199744",
    "MEAN_MOTION": 13.15531151,
    "ECCENTRICITY": 0.0006544,
    "INCLINATION": 100.7734,
    "RA_OF_ASC_NODE": 328.5823,
    "ARG_OF_PERICENTER": 165.483,
    "MEAN_ANOMALY": 194.647,
    "EPHEMERIS_TYPE": 0,
    "CLASSIFICATION_TYPE": "U",
    "NORAD_CAT_ID": 40275,
    "ELEMENT_SET_NO": 999,
    "REV_AT_EPOCH": 56099,
    "BSTAR": 0.000040509,
    "MEAN_MOTION_DOT": -3.2e-7,
    "MEAN_MOTION_DDOT": 0
   }
  },
  {
   "norad": 40310,
   "name": "YAOGAN-24",
   "intl": "2014-072A",
   "group": "resource",
   "gcat": {
    "class": "D",
    "category": "IMG",
    "owner": "ZZB",
    "state": "CN"
   },
   "omm": {
    "OBJECT_NAME": "YAOGAN-24",
    "OBJECT_ID": "2014-072A",
    "EPOCH": "2026-06-26T03:57:23.714784",
    "MEAN_MOTION": 14.7609574,
    "ECCENTRICITY": 0.0013274,
    "INCLINATION": 98.1495,
    "RA_OF_ASC_NODE": 314.5792,
    "ARG_OF_PERICENTER": 233.1782,
    "MEAN_ANOMALY": 126.821,
    "EPHEMERIS_TYPE": 0,
    "CLASSIFICATION_TYPE": "U",
    "NORAD_CAT_ID": 40310,
    "ELEMENT_SET_NO": 999,
    "REV_AT_EPOCH": 62504,
    "BSTAR": 0.0000918,
    "MEAN_MOTION_DOT": 0.00000581,
    "MEAN_MOTION_DDOT": 0
   }
  },
  {
   "norad": 40362,
   "name": "YAOGAN-26",
   "intl": "2014-088A",
   "group": "resource",
   "gcat": {
    "class": "D",
    "category": "IMG",
    "owner": "ZZB",
    "state": "CN"
   },
   "omm": {
    "OBJECT_NAME": "YAOGAN-26",
    "OBJECT_ID": "2014-088A",
    "EPOCH": "2026-06-26T04:28:18.556032",
    "MEAN_MOTION": 15.47711556,
    "ECCENTRICITY": 0.000493,
    "INCLINATION": 97.0643,
    "RA_OF_ASC_NODE": 177.1855,
    "ARG_OF_PERICENTER": 45.4026,
    "MEAN_ANOMALY": 314.7626,
    "EPHEMERIS_TYPE": 0,
    "CLASSIFICATION_TYPE": "U",
    "NORAD_CAT_ID": 40362,
    "ELEMENT_SET_NO": 999,
    "REV_AT_EPOCH": 63909,
    "BSTAR": 0.00070026,
    "MEAN_MOTION_DOT": 0.00036273,
    "MEAN_MOTION_DDOT": 0
   }
  },
  {
   "norad": 40878,
   "name": "YAOGAN-27",
   "intl": "2015-040A",
   "group": "resource",
   "gcat": {
    "class": "D",
    "category": "IMG",
    "owner": "ZZB",
    "state": "CN"
   },
   "omm": {
    "OBJECT_NAME": "YAOGAN-27",
    "OBJECT_ID": "2015-040A",
    "EPOCH": "2026-06-26T05:26:59.633376",
    "MEAN_MOTION": 13.16072313,
    "ECCENTRICITY": 0.0007929,
    "INCLINATION": 100.1154,
    "RA_OF_ASC_NODE": 163.2174,
    "ARG_OF_PERICENTER": 188.4668,
    "MEAN_ANOMALY": 171.6313,
    "EPHEMERIS_TYPE": 0,
    "CLASSIFICATION_TYPE": "U",
    "NORAD_CAT_ID": 40878,
    "ELEMENT_SET_NO": 999,
    "REV_AT_EPOCH": 51885,
    "BSTAR": 0.00097365,
    "MEAN_MOTION_DOT": 0.00000327,
    "MEAN_MOTION_DDOT": 0
   }
  },
  {
   "norad": 41026,
   "name": "YAOGAN-28",
   "intl": "2015-064A",
   "group": "resource",
   "gcat": {
    "class": "D",
    "category": "IMG",
    "owner": "ZZB",
    "state": "CN"
   },
   "omm": {
    "OBJECT_NAME": "YAOGAN-28",
    "OBJECT_ID": "2015-064A",
    "EPOCH": "2026-06-26T03:59:55.079808",
    "MEAN_MOTION": 15.27527332,
    "ECCENTRICITY": 0.0011401,
    "INCLINATION": 97.3079,
    "RA_OF_ASC_NODE": 315.246,
    "ARG_OF_PERICENTER": 152.8183,
    "MEAN_ANOMALY": 207.3655,
    "EPHEMERIS_TYPE": 0,
    "CLASSIFICATION_TYPE": "U",
    "NORAD_CAT_ID": 41026,
    "ELEMENT_SET_NO": 999,
    "REV_AT_EPOCH": 59205,
    "BSTAR": 0.00026005,
    "MEAN_MOTION_DOT": 0.00006942,
    "MEAN_MOTION_DDOT": 0
   }
  },
  {
   "norad": 41038,
   "name": "YAOGAN-29",
   "intl": "2015-069A",
   "group": "resource",
   "gcat": {
    "class": "D",
    "category": "IMG-R",
    "owner": "ZZB",
    "state": "CN"
   },
   "omm": {
    "OBJECT_NAME": "YAOGAN-29",
    "OBJECT_ID": "2015-069A",
    "EPOCH": "2026-06-26T05:14:39.810048",
    "MEAN_MOTION": 14.83089687,
    "ECCENTRICITY": 0.0002134,
    "INCLINATION": 98.0029,
    "RA_OF_ASC_NODE": 205.8654,
    "ARG_OF_PERICENTER": 39.2284,
    "MEAN_ANOMALY": 320.9083,
    "EPHEMERIS_TYPE": 0,
    "CLASSIFICATION_TYPE": "U",
    "NORAD_CAT_ID": 41038,
    "ELEMENT_SET_NO": 999,
    "REV_AT_EPOCH": 57196,
    "BSTAR": -0.0000044586,
    "MEAN_MOTION_DOT": -9e-7,
    "MEAN_MOTION_DDOT": 0
   }
  },
  {
   "norad": 32289,
   "name": "YAOGAN-3",
   "intl": "2007-055A",
   "group": "resource",
   "gcat": {
    "class": null,
    "category": null,
    "owner": null,
    "state": null
   },
   "omm": {
    "OBJECT_NAME": "YAOGAN-3",
    "OBJECT_ID": "2007-055A",
    "EPOCH": "2026-06-26T04:31:26.544288",
    "MEAN_MOTION": 14.90815705,
    "ECCENTRICITY": 0.0001901,
    "INCLINATION": 97.8158,
    "RA_OF_ASC_NODE": 206.9778,
    "ARG_OF_PERICENTER": 82.3836,
    "MEAN_ANOMALY": 277.7597,
    "EPHEMERIS_TYPE": 0,
    "CLASSIFICATION_TYPE": "U",
    "NORAD_CAT_ID": 32289,
    "ELEMENT_SET_NO": 999,
    "REV_AT_EPOCH": 721,
    "BSTAR": 0.00025668,
    "MEAN_MOTION_DOT": 0.0000247,
    "MEAN_MOTION_DDOT": 0
   }
  },
  {
   "norad": 33446,
   "name": "YAOGAN-4",
   "intl": "2008-061A",
   "group": "resource",
   "gcat": {
    "class": null,
    "category": null,
    "owner": null,
    "state": null
   },
   "omm": {
    "OBJECT_NAME": "YAOGAN-4",
    "OBJECT_ID": "2008-061A",
    "EPOCH": "2026-06-25T19:15:19.298016",
    "MEAN_MOTION": 14.83215733,
    "ECCENTRICITY": 0.0015383,
    "INCLINATION": 97.9307,
    "RA_OF_ASC_NODE": 110.2489,
    "ARG_OF_PERICENTER": 46.9056,
    "MEAN_ANOMALY": 313.3442,
    "EPHEMERIS_TYPE": 0,
    "CLASSIFICATION_TYPE": "U",
    "NORAD_CAT_ID": 33446,
    "ELEMENT_SET_NO": 999,
    "REV_AT_EPOCH": 94694,
    "BSTAR": 0.00012741,
    "MEAN_MOTION_DOT": 0.00000989,
    "MEAN_MOTION_DDOT": 0
   }
  },
  {
   "norad": 36110,
   "name": "YAOGAN-7",
   "intl": "2009-069A",
   "group": "resource",
   "gcat": {
    "class": null,
    "category": null,
    "owner": null,
    "state": null
   },
   "omm": {
    "OBJECT_NAME": "YAOGAN-7",
    "OBJECT_ID": "2009-069A",
    "EPOCH": "2026-06-26T03:51:05.868576",
    "MEAN_MOTION": 14.78018203,
    "ECCENTRICITY": 0.002495,
    "INCLINATION": 98.0063,
    "RA_OF_ASC_NODE": 62.9717,
    "ARG_OF_PERICENTER": 13.6727,
    "MEAN_ANOMALY": 346.5154,
    "EPHEMERIS_TYPE": 0,
    "CLASSIFICATION_TYPE": "U",
    "NORAD_CAT_ID": 36110,
    "ELEMENT_SET_NO": 999,
    "REV_AT_EPOCH": 89095,
    "BSTAR": 0.000073591,
    "MEAN_MOTION_DOT": 0.00000481,
    "MEAN_MOTION_DDOT": 0
   }
  },
  {
   "norad": 38038,
   "name": "ZIYUAN 1-02C (ZY 1-02C)",
   "intl": "2011-079A",
   "group": "resource",
   "gcat": {
    "class": null,
    "category": null,
    "owner": null,
    "state": null
   },
   "omm": {
    "OBJECT_NAME": "ZIYUAN 1-02C (ZY 1-02C)",
    "OBJECT_ID": "2011-079A",
    "EPOCH": "2026-06-26T04:36:41.333184",
    "MEAN_MOTION": 14.38221246,
    "ECCENTRICITY": 0.0005166,
    "INCLINATION": 98.4071,
    "RA_OF_ASC_NODE": 244.3125,
    "ARG_OF_PERICENTER": 284.353,
    "MEAN_ANOMALY": 152.0654,
    "EPHEMERIS_TYPE": 0,
    "CLASSIFICATION_TYPE": "U",
    "NORAD_CAT_ID": 38038,
    "ELEMENT_SET_NO": 999,
    "REV_AT_EPOCH": 76050,
    "BSTAR": 0.00013645,
    "MEAN_MOTION_DOT": 0.00000371,
    "MEAN_MOTION_DDOT": 0
   }
  }
 ]
}
